     2.11           N: GPS NAV DATA                         RINEX VERSION / TYPE
teqc  2018Dec12     gpsops              20220102 01:04:12UTCPGM / RUN BY / DATE
Linux 2.6.32-573.12.1.x86_64|x86_64|gcc -static|Linux 64|=+ COMMENT
CHPI                                    MARKER NAME         COMMENT
41609M003                               MARKER NUMBER       COMMENT
4164613.9484 -4162456.9866 -2445028.7316                    COMMENT
                                                            COMMENT
This data is provided as a public service by NASA/JPL.      COMMENT
No warranty is expressed or implied regarding suitability   COMMENT
for use.  For further information, contact:                 COMMENT
Dave Stowers, NASA/JPL m/s 238-600                          COMMENT
4800 Oak Grove Drive, Pasadena CA 91109 USA                 COMMENT
                                                            END OF HEADER
12 22  1  1 14  0  0.0-1.493860036135D-04-5.570655048359D-12 0.000000000000D+00
    1.600000000000D+01 1.571250000000D+02 3.881233097509D-09-8.809908643943D-01
    8.126720786095D-06 8.514421177097D-03 1.050345599651D-05 5.153640150070D+03
    5.688000000000D+05-3.166496753693D-08-3.072266115667D+00 1.490116119385D-07
    9.713488422010D-01 1.847812500000D+02 1.232339848290D+00-7.773180927044D-09
   -1.935794919343D-10 1.000000000000D+00 2.190000000000D+03 0.000000000000D+00
    2.000000000000D+00 0.000000000000D+00-1.257285475731D-08 1.600000000000D+01
    5.616180000000D+05 4.000000000000D+00
25 22  1  1 14  0  0.0 2.644853666425D-04 5.684341886081D-12 0.000000000000D+00
    4.400000000000D+01 1.403437500000D+02 4.154101606435D-09-1.101997217990D+00
    7.240101695061D-06 1.028464327101D-02 1.132860779762D-05 5.153740356445D+03
    5.688000000000D+05 1.583248376846D-07 3.134792156013D+00 2.104789018631D-07
    9.587479197906D-01 1.604687500000D+02 9.667571768369D-01-7.804610807653D-09
   -3.364425856127D-10 1.000000000000D+00 2.190000000000D+03 0.000000000000D+00
    2.000000000000D+00 0.000000000000D+00 5.587935447693D-09 4.400000000000D+01
    5.616180000000D+05 4.000000000000D+00
 2 22  1  1 14  0  0.0-6.474489346147D-04-1.136868377216D-12 0.000000000000D+00
    6.000000000000D+00-1.282812500000D+02 4.665194324069D-09 6.146421095567D-01
   -6.942078471184D-06 2.064092515502D-02 2.522021532059D-06 5.153666324615D+03
    5.688000000000D+05-2.663582563400D-07-1.125385698317D+00-1.229345798492D-07
    9.647296469878D-01 3.349687500000D+02-1.464554161497D+00-8.772151109590D-09
   -3.000124967247D-10 1.000000000000D+00 2.190000000000D+03 0.000000000000D+00
    2.000000000000D+00 0.000000000000D+00-1.769512891769D-08 6.000000000000D+00
    5.616180000000D+05 4.000000000000D+00
20 22  1  1 14  0  0.0 5.173734389246D-04-1.136868377216D-13 0.000000000000D+00
    7.100000000000D+01-1.138125000000D+02 4.597334354572D-09 1.523311515673D+00
   -6.036832928658D-06 5.365843302570D-03 1.204945147038D-05 5.153723709106D+03
    5.688000000000D+05-5.587935447693D-08-1.546237598317D-01 6.705522537231D-08
    9.415793516680D-01 1.366875000000D+02 3.088621055567D+00-7.910686654709D-09
    2.707255625206D-10 1.000000000000D+00 2.190000000000D+03 0.000000000000D+00
    2.000000000000D+00 0.000000000000D+00-8.381903171539D-09 7.100000000000D+01
    5.616180000000D+05 4.000000000000D+00
 5 22  1  1 14  0  0.0-6.640236824751D-05-1.364242052659D-12 0.000000000000D+00
    3.100000000000D+01-1.033750000000D+02 4.211604001640D-09 3.086730159341D+00
   -5.457550287247D-06 5.893068155274D-03 1.263804733753D-05 5.153648666382D+03
    5.688000000000D+05-2.048909664154D-08-4.148889800771D-02-7.450580596924D-08
    9.594238113499D-01 1.351875000000D+02 1.014831244046D+00-7.596030690882D-09
    4.675194740627D-10 1.000000000000D+00 2.190000000000D+03 0.000000000000D+00
    2.000000000000D+00 0.000000000000D+00-1.117587089539D-08 3.100000000000D+01
    5.616180000000D+05 4.000000000000D+00
29 22  1  1 14  0  0.0-4.616733640432D-04-4.888534022029D-12 0.000000000000D+00
    8.500000000000D+01 9.606250000000D+01 4.230176203818D-09 2.776995381164D+00
    4.995614290237D-06 1.753220451064D-03-3.185123205185D-07 5.153770145416D+03
    5.688000000000D+05-4.470348358154D-08-2.022326068032D+00-4.097819328308D-08
    9.821858160274D-01 3.981875000000D+02 2.302767692043D+00-8.288559537489D-09
    2.253665302777D-10 1.000000000000D+00 2.190000000000D+03 0.000000000000D+00
    2.000000000000D+00 0.000000000000D+00-1.024454832077D-08 8.500000000000D+01
    5.616180000000D+05 4.000000000000D+00
24 22  1  1 14  0  0.0 2.767154946923D-04 7.958078640513D-13 0.000000000000D+00
    7.900000000000D+01-9.281250000000D+00 5.541302246052D-09 7.557104631513D-01
   -2.924352884293D-07 1.224507379811D-02 7.126480340958D-06 5.153690149307D+03
    5.688000000000D+05-7.450580596924D-08 2.016908218220D+00 1.266598701477D-07
    9.340956216092D-01 2.279687500000D+02 7.965193822066D-01-8.482853344891D-09
   -7.868184884340D-10 1.000000000000D+00 2.190000000000D+03 0.000000000000D+00
    2.000000000000D+00 0.000000000000D+00 2.328306436539D-09 7.900000000000D+01
    5.616180000000D+05 4.000000000000D+00
11 22  1  1 14  0  0.0-2.908986061811D-06-3.410605131648D-11 0.000000000000D+00
    1.950000000000D+02-1.553750000000D+02 4.473757778540D-09 2.687103448096D+00
   -8.057802915573D-06 3.300533862785D-04 3.313645720482D-06 5.153757539749D+03
    5.688000000000D+05-4.656612873077D-08-9.921862889072D-01 5.029141902924D-08
    9.615233591931D-01 3.105937500000D+02 2.776345203316D+00-8.292488272565D-09
   -2.107230631757D-10 1.000000000000D+00 2.190000000000D+03 0.000000000000D+00
    2.000000000000D+00 6.300000000000D+01-8.847564458847D-09 4.510000000000D+02
    5.616180000000D+05 4.000000000000D+00
18 22  1  1 14  0  0.0 2.690306864679D-04-7.048583938740D-12 0.000000000000D+00
    1.080000000000D+02-1.576250000000D+02 4.334823419938D-09 6.389372509183D-01
   -8.136034011841D-06 2.096551586874D-03 2.546235918999D-06 5.153634473801D+03
    5.688000000000D+05 5.401670932770D-08-1.028531413342D+00 6.332993507385D-08
    9.701934529087D-01 3.355312500000D+02 3.098921766050D+00-8.277487647728D-09
   -2.382242087088D-10 1.000000000000D+00 2.190000000000D+03 0.000000000000D+00
    2.000000000000D+00 0.000000000000D+00-8.381903171539D-09 8.760000000000D+02
    5.616180000000D+05 4.000000000000D+00
31 22  1  1 14  0  0.0-1.578694209456D-04-1.818989403546D-12 0.000000000000D+00
    6.500000000000D+01-1.087500000000D+01 4.951634826895D-09-6.634527618706D-01
   -5.606561899185D-07 1.046619587578D-02 7.722526788712D-06 5.153656368256D+03
    5.688000000000D+05 1.844018697739D-07 2.116821887683D+00 1.303851604462D-08
    9.549489146439D-01 2.266250000000D+02 3.602512602653D-01-8.126409926164D-09
   -7.339591437730D-10 1.000000000000D+00 2.190000000000D+03 0.000000000000D+00
    2.000000000000D+00 0.000000000000D+00-1.303851604462D-08 6.500000000000D+01
    5.616180000000D+05 4.000000000000D+00
23 22  1  1 14  0  0.0 1.566344872117D-05-3.979039320257D-12 0.000000000000D+00
    1.430000000000D+02-1.158125000000D+02 4.015881563301D-09-1.923160855255D-01
   -5.949288606644D-06 1.954247243702D-03 1.202151179314D-05 5.153703987122D+03
    5.688000000000D+05 3.725290298462D-09-2.912403205855D-02 2.607703208923D-08
    9.673143774637D-01 1.512500000000D+02 2.895378043203D+00-7.600316583693D-09
    4.632335812523D-10 1.000000000000D+00 2.190000000000D+03 0.000000000000D+00
    2.000000000000D+00 0.000000000000D+00-8.381903171539D-09 1.430000000000D+02
    5.641980000000D+05 4.000000000000D+00
15 22  1  1 14  0  0.0-9.480398148298D-05 2.842170943040D-12 0.000000000000D+00
    2.200000000000D+01 1.568750000000D+01 5.706666276985D-09 1.735946775528D+00
    6.482005119324D-07 1.391698501538D-02 7.310882210732D-06 5.153708566666D+03
    5.688000000000D+05-2.775341272354D-07 9.216080782757D-01-2.179294824600D-07
    9.295994979618D-01 2.251875000000D+02 1.068410820582D+00-8.392135280405D-09
    6.032394130572D-10 1.000000000000D+00 2.190000000000D+03 0.000000000000D+00
    2.000000000000D+00 0.000000000000D+00-1.071020960808D-08 2.200000000000D+01
    5.645280000000D+05 4.000000000000D+00
26 22  1  1 14  0  0.0 1.704273745418D-04 3.524291969370D-12 0.000000000000D+00
    1.780000000000D+02 1.165312500000D+02 4.465543150654D-09-1.748248918865D+00
    5.964189767838D-06 6.719979341142D-03 1.217238605022D-05 5.153686735153D+03
    5.688000000000D+05-6.146728992462D-08 3.088669438657D+00-9.499490261078D-08
    9.395849349697D-01 1.339375000000D+02 3.365527583390D-01-7.832111953186D-09
   -2.825117677491D-10 1.000000000000D+00 2.190000000000D+03 0.000000000000D+00
    2.000000000000D+00 0.000000000000D+00 6.984919309616D-09 1.780000000000D+02
    5.665560000000D+05 4.000000000000D+00
10 22  1  1 14  0  0.0-2.827621065080D-04-9.322320693173D-12 0.000000000000D+00
    8.700000000000D+01-1.093750000000D+02 3.882661728446D-09-1.551945471638D+00
   -5.712732672691D-06 7.408477249555D-03 1.182593405247D-05 5.153685009003D+03
    5.688000000000D+05 1.061707735062D-07-4.510964951225D-03-1.676380634308D-08
    9.722725389167D-01 1.545625000000D+02-2.546323659481D+00-7.465668117901D-09
    5.375223899651D-10 1.000000000000D+00 2.190000000000D+03 0.000000000000D+00
    2.000000000000D+00 0.000000000000D+00 2.328306436539D-09 8.700000000000D+01
    5.686920000000D+05 4.000000000000D+00
25 22  1  1 16  0  0.0 2.645258791745D-04 5.684341886081D-12 0.000000000000D+00
    4.500000000000D+01 1.307500000000D+02 4.258748822554D-09-5.180463558530D-02
    6.873160600662D-06 1.028403569944D-02 1.092627644539D-05 5.153739973068D+03
    5.760000000000D+05-2.607703208923D-08 3.134735166577D+00 1.471489667892D-07
    9.587450085836D-01 1.678125000000D+02 9.667017059092D-01-7.933544749698D-09
   -3.292994309288D-10 1.000000000000D+00 2.190000000000D+03 0.000000000000D+00
    2.000000000000D+00 0.000000000000D+00 5.587935447693D-09 4.500000000000D+01
    5.688180000000D+05 4.000000000000D+00
